0 FENGYUN 1C DEB
1 37471U 99025EJR 13283.52898724  .00006482  00000-0  10645-2 0  1326
2 37471 098.6732 028.6102 0242498 170.3746 190.2582 14.53338942252935
0 FENGYUN 1C DEB
1 37471U 99025EJR 13289.51868474  .00008507  00000-0  13791-2 0  1336
2 37471 098.6789 034.8274 0244706 152.2004 209.9120 14.53456355253808
0 FENGYUN 1C DEB
1 37471U 99025EJR 13290.06930356  .00008737  00000-0  13896-2 0  1349
2 37471 098.6920 035.4037 0250322 150.8884 210.7678 14.53469859253889
0 FENGYUN 1C DEB
1 37471U 99025EJR 13293.51134115  .00010183  00000-0  16734-2 0  1354
2 37471 098.6643 038.9313 0239313 139.8058 222.3223 14.53554662254381
0 FENGYUN 1C DEB
1 37471U 99025EJR 13295.09456596  .00010672  00000-0  17292-2 0  1363
2 37471 098.6737 040.5901 0243266 135.3115 226.8941 14.53594277254612
